CSTP-4.3
1 64882U 25155G   26068.92357222  .00012876  00000-0  47926-3 0  9995
2 64882  97.4488  37.3259 0008187 154.1528 206.0122 15.27590702 65595
CSTP-4.2
1 64883U 25155H   26068.92359504  .00013547  00000-0  50403-3 0  9991
2 64883  97.4482  37.3122 0008199 152.0629 208.1051 15.27590961 65592
